1 27704U 03010A   21054.36514334 -.00000035  00000-0  00000-0 0  9994
2 27704  54.7918  42.7613 0244474 291.8308  90.7657  2.00558631131206
1 27704U 03010A   21055.59189220 -.00000033  00000-0  00000-0 0  9990
2 27704  54.7926  42.7113 0244477 291.8736 256.4752  2.00558645131211
1 27704U 03010A   21056.35882564 -.00000033  00000-0  00000-0 0  9996
2 27704  54.7931  42.6800 0244479 291.8998  90.1998  2.00558656131241
1 27704U 03010A   21057.35646838 -.00000035  00000-0  00000-0 0  9991
2 27704  54.7937  42.6393 0244481 291.9340  90.4961  2.00558671131261
1 27704U 03010A   21058.35271146 -.00000037  00000-0  00000-0 0  9990
2 27704  54.7944  42.5987 0244481 291.9684  89.7819  2.00558688131281
1 27704U 03010A   21058.56592983 -.00000037  00000-0  00000-0 0  9998
2 27704  54.7945  42.5900 0244481 291.9765 243.7245  2.00558692131287
1 27704U 03010A   21059.35055848 -.00000040  00000-0  00000-0 0  9994
2 27704  54.7950  42.5581 0244484 292.0028  90.2258  2.00558708131305
1 27704U 03010A   21060.34783234 -.00000042  00000-0  00000-0 0  9994
2 27704  54.7957  42.5174 0244485 292.0376  90.2558  2.00558736131323
1 27704U 03010A   21061.34548638 -.00000045  00000-0  00000-0 0  9995
2 27704  54.7963  42.4768 0244482 292.0721  90.5605  2.00558767131330
1 27704U 03010A   21062.34214610 -.00000047  00000-0  00000-0 0  9998
2 27704  54.7970  42.4361 0244480 292.1070  90.1470  2.00558804131364
1 27704U 03010A   21063.42015928 -.00000049  00000-0  00000-0 0  9991
2 27704  54.7977  42.3922 0244473 292.1460 148.4696  2.00558853131381
1 27704U 03010A   21064.54447010 -.00000051  00000-0  00000-0 0  9999
2 27704  54.7983  42.3464 0244463 292.1851 240.2206  2.00558908131404
1 27704U 03010A   21065.54179780 -.00000054  00000-0  00000-0 0  9999
2 27704  54.7990  42.3057 0244456 292.2199 240.2902  2.00558968131429
1 27704U 03010A   21066.33173272 -.00000056  00000-0  00000-0 0  9999
2 27704  54.7995  42.2735 0244456 292.2460  90.6239  2.00559019131447
1 27704U 03010A   21067.51227480 -.00000061  00000-0  00000-0 0  9997
2 27704  54.8002  42.2253 0244446 292.2879 222.9738  2.00559098131468
1 27704U 03010A   21068.32596938 -.00000065  00000-0  00000-0 0  9998
2 27704  54.8007  42.1922 0244447 292.3147  90.4623  2.00559156131483
1 27704U 03010A   21069.31762259 -.00000070  00000-0  00000-0 0  9995
2 27704  54.8014  42.1518 0244442 292.3491  86.4358  2.00559232131507
1 27704U 03010A   21070.32011545 -.00000075  00000-0  00000-0 0  9998
2 27704  54.8020  42.1109 0244437 292.3836  90.2360  2.00559310131522
1 27704U 03010A   21070.78891615 -.00000077  00000-0  00000-0 0  9994
2 27704  54.8023  42.0919 0244434 292.4000  68.7099  2.00559343131530
1 27704U 03010A   21071.52212816 -.00000079  00000-0  00000-0 0  9999
2 27704  54.8028  42.0621 0244421 292.4257 238.0890  2.00559402131543
1 27704U 03010A   21072.31487880 -.00000081  00000-0  00000-0 0  9995
2 27704  54.8032  42.0298 0244424 292.4531  90.4554  2.00559461131560
1 27704U 03010A   21073.53948877 -.00000080  00000-0  00000-0 0  9997
2 27704  54.8039  41.9800 0244405 292.4948 254.6249  2.00559543131583
1 27704U 03010A   21074.53913247 -.00000078  00000-0  00000-0 0  9998
2 27704  54.8045  41.9395 0244400 292.5281 256.3698  2.00559607131606
1 27704U 03010A   21075.51199826 -.00000074  00000-0  00000-0 0  9992
2 27704  54.8050  41.8999 0244394 292.5611 238.7807  2.00559664131621
1 27704U 03010A   21076.29775565 -.00000070  00000-0  00000-0 0  9994
2 27704  54.8055  41.8679 0244398 292.5880  86.0987  2.00559703131642
1 27704U 03010A   21077.51169167 -.00000063  00000-0  00000-0 0  9997
2 27704  54.8062  41.8185 0244381 292.6288 242.5632  2.00559747131663
1 27704U 03010A   21078.51387774 -.00000058  00000-0  00000-0 0  9998
2 27704  54.8068  41.7777 0244377 292.6627 246.1439  2.00559780131681
1 27704U 03010A   21079.29481304 -.00000054  00000-0  00000-0 0  9994
2 27704  54.8072  41.7459 0244374 292.6900  89.9801  2.00559800131706
1 27704U 03010A   21079.76117344 -.00000052  00000-0  00000-0 0  9994
2 27704  54.8075  41.7270 0244368 292.7056  66.6935  2.00559806131713
1 27704U 03010A   21081.51362178 -.00000047  00000-0  00000-0 0  9991
2 27704  54.8084  41.6557 0244348 292.7645 251.9662  2.00559834131731
1 27704U 03010A   21082.28969634 -.00000046  00000-0  00000-0 0  9995
2 27704  54.8089  41.6241 0244340 292.7905  92.2944  2.00559844131760
1 27704U 03010A   21083.28375028 -.00000045  00000-0  00000-0 0  9993
2 27704  54.8095  41.5836 0244329 292.8232  90.0052  2.00559856131788
1 27704U 03010A   21084.52437997 -.00000047  00000-0  00000-0 0  9997
2 27704  54.8101  41.5330 0244310 292.8643 265.7445  2.00559872131809
1 27704U 03010A   21086.49952456 -.00000052  00000-0  00000-0 0  9993
2 27704  54.8111  41.4526 0244282 292.9297 251.8066  2.00559902131843
1 27704U 03010A   21087.51466637 -.00000054  00000-0  00000-0 0  9990
2 27704  54.8118  41.4113 0244264 292.9638 264.7426  2.00559923131858
1 27704U 03010A   21088.26439187 -.00000056  00000-0  00000-0 0  9995
2 27704  54.8122  41.3808 0244256 292.9878  86.0484  2.00559943131884
1 27704U 03010A   21089.26683185 -.00000059  00000-0  00000-0 0  9998
2 27704  54.8134  41.3401 0244237 293.0227  89.8126  2.00559975131907
1 27704U 03010A   21090.26392612 -.00000061  00000-0  00000-0 0  9995
2 27704  54.8140  41.2995 0244218 293.0561  89.7186  2.00560014131924
1 27704U 03010A   21091.26087721 -.00000063  00000-0  00000-0 0  9990
2 27704  54.8146  41.2589 0244203 293.0888  89.5223  2.00560062131940
1 27704U 03010A   21091.47783568 -.00000064  00000-0  00000-0 0  9996
2 27704  54.8146  41.2500 0244196 293.0969 246.1665  2.00560073131947
1 27704U 03010A   21092.46739991 -.00000066  00000-0  00000-0 0  9999
2 27704  54.8151  41.2097 0244178 293.1292 240.6371  2.00560128131960
1 27704U 03010A   21093.25581799 -.00000069  00000-0  00000-0 0  9991
2 27704  54.8155  41.1776 0244168 293.1540  89.8801  2.00560174131986
1 27704U 03010A   21094.47306810 -.00000074  00000-0  00000-0 0  9991
2 27704  54.8161  41.1280 0244150 293.1942 248.7410  2.00560250132001
1 27704U 03010A   21096.24187058 -.00000084  00000-0  00000-0 0  9990
2 27704  54.8170  41.0560 0244128 293.2511  85.8277  2.00560376132043
1 27704U 03010A   21096.33973329 -.00000085  00000-0  00000-0 0  9995
2 27704  54.8171  41.0520 0244124 293.2555 156.4840  2.00560385132045
1 27704U 03010A   21097.47209834 -.00000090  00000-0  00000-0 0  9990
2 27704  54.8178  41.0059 0244097 293.2920 254.0591  2.00560472132061
1 27704U 03010A   21098.46737986 -.00000094  00000-0  00000-0 0  9998
2 27704  54.8183  40.9655 0244080 293.3244 252.6589  2.00560550132089
1 27704U 03010A   21099.23381843 -.00000096  00000-0  00000-0 0  9993
2 27704  54.8187  40.9343 0244075 293.3493  86.0327  2.00560609132104
1 27704U 03010A   21100.46233863 -.00000097  00000-0  00000-0 0  9990
2 27704  54.8194  40.8843 0244041 293.3890 253.0330  2.00560700132124
1 27704U 03010A   21101.23296812 -.00000096  00000-0  00000-0 0  9998
2 27704  54.8197  40.8530 0244037 293.4141  89.4329  2.00560752132143
1 27704U 03010A   21102.22954997 -.00000093  00000-0  00000-0 0  9990
2 27704  54.8203  40.8125 0244018 293.4460  88.9727  2.00560815132162
1 27704U 03010A   21104.43042741 -.00000083  00000-0  00000+0 0  9998
2 27704  54.8214  40.7230 0243976 293.5157 238.0247  2.00560929132190
1 27704U 03010A   21104.43042741 -.00000083  00000-0  00000-0 0  9999
2 27704  54.8214  40.7230 0243976 293.5157 238.0247  2.00560929132202
1 27704U 03010A   21105.43143069 -.00000078  00000-0  00000-0 0  9999
2 27704  54.8219  40.6823 0243962 293.5475 240.7576  2.00560967132221
1 27704U 03010A   21106.21860649 -.00000074  00000-0  00000-0 0  9992
2 27704  54.8224  40.6503 0243952 293.5735  89.1043  2.00560989132240
1 27704U 03010A   21106.43110587 -.00000073  00000-0  00000-0 0  9994
2 27704  54.8225  40.6416 0243945 293.5796 242.5315  2.00560996132248
1 27704U 03010A   21107.43113850 -.00000069  00000-0  00000-0 0  9996
2 27704  54.8230  40.6009 0243928 293.6114 244.5638  2.00561018132266
1 27704U 03010A   21107.68294078 -.00000068  00000-0  00000-0 0  9994
2 27704  54.8231  40.5907 0243927 293.6197  66.3670  2.00561022132275
1 27704U 03010A   21108.42804413 -.00000065  00000-0  00000-0 0  9994
2 27704  54.8235  40.5604 0243911 293.6428 244.3389  2.00561035132283
1 27704U 03010A   21109.39368856 -.00000064  00000-0  00000-0 0  9996
2 27704  54.8239  40.5211 0243891 293.6730 221.5433  2.00561046132306
1 27704U 03010A   21110.43552340 -.00000063  00000-0  00000-0 0  9995
2 27704  54.8245  40.4787 0243870 293.7053 253.7584  2.00561056132323
1 27704U 03010A   21111.19945443 -.00000063  00000-0  00000-0 0  9999
2 27704  54.8249  40.4475 0243855 293.7291  85.3241  2.00561063132347
1 27704U 03010A   21112.42934449 -.00000065  00000-0  00000-0 0  9992
2 27704  54.8257  40.3974 0243820 293.7685 253.3160  2.00561077132362
1 27704U 03010A   21113.21018252 -.00000066  00000-0  00000-0 0  9996
2 27704  54.8261  40.3657 0243806 293.7918  97.0899  2.00561087132383
1 27704U 03010A   21114.41607209 -.00000069  00000-0  00000-0 0  9998
2 27704  54.8268  40.3166 0243779 293.8299 247.7542  2.00561110132406
1 27704U 03010A   21115.40605396 -.00000071  00000-0  00000-0 0  9996
2 27704  54.8273  40.2762 0243758 293.8608 242.5312  2.00561131132427
1 27704U 03010A   21116.40283187 -.00000074  00000-0  00000-0 0  9990
2 27704  54.8278  40.2356 0243737 293.8917 242.2155  2.00561158132444
1 27704U 03010A   21117.18253865 -.00000075  00000-0  00000-0 0  9997
2 27704  54.8282  40.2039 0243720 293.9151  85.1729  2.00561185132463
1 27704U 03010A   21119.18994917 -.00000079  00000-0  00000-0 0  9993
2 27704  54.8292  40.1221 0243674 293.9760  94.5467  2.00561271132504
1 27704U 03010A   21120.39653620 -.00000083  00000-0  00000-0 0  9996
2 27704  54.8298  40.0730 0243642 294.0138 245.7157  2.00561338132522
